2024-174A               
1 61238U 24174A   26068.73892799  .00005060  00000+0  24396-3 0  9991
2 61238  97.4523  77.8721 0001402  95.7936 264.3459 15.19157836 80580
KONDOR-FKA NO. 2        
1 62138U 24223A   26068.49158135  .00005629  00000+0  26619-3 0  9999
2 62138  97.4353 273.3867 0001838  85.6363 274.5082 15.19776940 70565
